{
  "type": "FeatureCollection",
  "features": [
    {
      "type": "Feature",
      "properties": {
        "norad_id": 35045,
        "name": "COSMOS 2251 DEB",
        "group": "cosmos-2251-debris",
        "lat": -19.758729007067586,
        "lon": -144.16669967915337,
        "alt_km": 848.1879610085225,
        "timestamp": "2025-12-25T16:53:15.059659+00:00",
        "meta_object_name": "COSMOS 2251 DEB",
        "meta_object_id": "1993-036AHJ",
        "meta_epoch": "2025-12-24T19:20:26.125152",
        "meta_mean_motion": 14.0041252,
        "meta_eccentricity": 0.01839955,
        "meta_inclination": 73.7191,
        "meta_ra_of_asc_node": 31.3925,
        "meta_arg_of_pericenter": 271.7742,
        "meta_mean_anomaly": 86.2325,
        "meta_ephemeris_type": 0,
        "meta_classification_type": "U",
        "meta_norad_cat_id": 35045,
        "meta_element_set_no": 999,
        "meta_rev_at_epoch": 84812,
        "meta_bstar": 0.0006276669,
        "meta_mean_motion_dot": 1.049e-05,
        "meta_mean_motion_ddot": 0,
        "tle_line1": "1 35045U 93036AHJ 25358.80585793  .00001049  00000+0  62767-3 0  9990",
        "tle_line2": "2 35045  73.7191  31.3925 0183995 271.7742  86.2325 14.00412520848123"
      },
      "geometry": {
        "type": "Point",
        "coordinates": [
          -144.16669967915337,
          -19.758729007067586
        ]
      }
    },
    {
      "type": "Feature",
      "properties": {
        "norad_id": 35060,
        "name": "COSMOS 2251 DEB",
        "group": "cosmos-2251-debris",
        "lat": -47.796836493462685,
        "lon": 58.719810390399665,
        "alt_km": 755.6584581267134,
        "timestamp": "2025-12-25T16:53:15.059668+00:00",
        "meta_object_name": "COSMOS 2251 DEB",
        "meta_object_id": "1993-036AHP",
        "meta_epoch": "2025-12-23T23:50:58.864704",
        "meta_mean_motion": 14.416228,
        "meta_eccentricity": 0.00187381,
        "meta_inclination": 74.0364,
        "meta_ra_of_asc_node": 223.4863,
        "meta_arg_of_pericenter": 306.8479,
        "meta_mean_anomaly": 53.0958,
        "meta_ephemeris_type": 0,
        "meta_classification_type": "U",
        "meta_norad_cat_id": 35060,
        "meta_element_set_no": 999,
        "meta_rev_at_epoch": 87404,
        "meta_bstar": 0.0002601881,
        "meta_mean_motion_dot": 8.22e-06,
        "meta_mean_motion_ddot": 0,
        "tle_line1": "1 35060U 93036AHP 25357.99373686  .00000822  00000+0  26019-3 0  9990",
        "tle_line2": "2 35060  74.0364 223.4863 0018738 306.8479  53.0958 14.41622800874043"
      },
      "geometry": {
        "type": "Point",
        "coordinates": [
          58.719810390399665,
          -47.796836493462685
        ]
      }
    },
    {
      "type": "Feature",
      "properties": {
        "norad_id": 35061,
        "name": "COSMOS 2251 DEB",
        "group": "cosmos-2251-debris",
        "lat": -70.6907297961056,
        "lon": 155.41822914433334,
        "alt_km": 692.1206662814611,
        "timestamp": "2025-12-25T16:53:15.059678+00:00",
        "meta_object_name": "COSMOS 2251 DEB",
        "meta_object_id": "1993-036AHQ",
        "meta_epoch": "2025-12-23T13:00:21.862944",
        "meta_mean_motion": 14.67913326,
        "meta_eccentricity": 0.00396373,
        "meta_inclination": 74.0464,
        "meta_ra_of_asc_node": 284.8618,
        "meta_arg_of_pericenter": 32.7091,
        "meta_mean_anomaly": 327.652,
        "meta_ephemeris_type": 0,
        "meta_classification_type": "U",
        "meta_norad_cat_id": 35061,
        "meta_element_set_no": 999,
        "meta_rev_at_epoch": 88733,
        "meta_bstar": 0.00077438177,
        "meta_mean_motion_dot": 4.453e-05,
        "meta_mean_motion_ddot": 0,
        "tle_line1": "1 35061U 93036AHQ 25357.54191971  .00004453  00000+0  77438-3 0  9992",
        "tle_line2": "2 35061  74.0464 284.8618 0039637  32.7091 327.6520 14.67913326887335"
      },
      "geometry": {
        "type": "Point",
        "coordinates": [
          155.41822914433334,
          -70.6907297961056
        ]
      }
    },
    {
      "type": "Feature",
      "properties": {
        "norad_id": 35062,
        "name": "COSMOS 2251 DEB",
        "group": "cosmos-2251-debris",
        "lat": 20.415966598878743,
        "lon": 76.09945912402739,
        "alt_km": 749.4057425500005,
        "timestamp": "2025-12-25T16:53:15.059689+00:00",
        "meta_object_name": "COSMOS 2251 DEB",
        "meta_object_id": "1993-036AHR",
        "meta_epoch": "2025-12-25T04:58:43.946976",
        "meta_mean_motion": 14.23029012,
        "meta_eccentricity": 0.01260462,
        "meta_inclination": 74.0785,
        "meta_ra_of_asc_node": 70.8899,
        "meta_arg_of_pericenter": 66.8027,
        "meta_mean_anomaly": 294.6336,
        "meta_ephemeris_type": 0,
        "meta_classification_type": "U",
        "meta_norad_cat_id": 35062,
        "meta_element_set_no": 999,
        "meta_rev_at_epoch": 85676,
        "meta_bstar": 0.0014843407,
        "meta_mean_motion_dot": 3.607e-05,
        "meta_mean_motion_ddot": 0,
        "tle_line1": "1 35062U 93036AHR 25359.20745309  .00003607  00000+0  14843-2 0  9998",
        "tle_line2": "2 35062  74.0785  70.8899 0126046  66.8027 294.6336 14.23029012856767"
      },
      "geometry": {
        "type": "Point",
        "coordinates": [
          76.09945912402739,
          20.415966598878743
        ]
      }
    },
    {
      "type": "Feature",
      "properties": {
        "norad_id": 35065,
        "name": "COSMOS 2251 DEB",
        "group": "cosmos-2251-debris",
        "lat": 48.19807671406242,
        "lon": -171.16767950969827,
        "alt_km": 741.527688021296,
        "timestamp": "2025-12-25T16:53:15.059699+00:00",
        "meta_object_name": "COSMOS 2251 DEB",
        "meta_object_id": "1993-036AHU",
        "meta_epoch": "2025-12-19T06:12:25.656192",
        "meta_mean_motion": 14.4574331,
        "meta_eccentricity": 0.0020018,
        "meta_inclination": 74.0185,
        "meta_ra_of_asc_node": 182.1668,
        "meta_arg_of_pericenter": 306.5523,
        "meta_mean_anomaly": 53.3791,
        "meta_ephemeris_type": 0,
        "meta_classification_type": "U",
        "meta_norad_cat_id": 35065,
        "meta_element_set_no": 999,
        "meta_rev_at_epoch": 68445,
        "meta_bstar": 0.00028971,
        "meta_mean_motion_dot": 1.002e-05,
        "meta_mean_motion_ddot": 0,
        "tle_line1": "1 35065U 93036AHU 25353.25863028  .00001002  00000+0  28971-3 0  9994",
        "tle_line2": "2 35065  74.0185 182.1668 0020018 306.5523  53.3791 14.45743310684450"
      },
      "geometry": {
        "type": "Point",
        "coordinates": [
          -171.16767950969827,
          48.19807671406242
        ]
      }
    },
    {
      "type": "Feature",
      "properties": {
        "norad_id": 35071,
        "name": "COSMOS 2251 DEB",
        "group": "cosmos-2251-debris",
        "lat": 73.74167284853274,
        "lon": -131.99879000797517,
        "alt_km": 516.2263326263919,
        "timestamp": "2025-12-25T16:53:15.059709+00:00",
        "meta_object_name": "COSMOS 2251 DEB",
        "meta_object_id": "1993-036AJA",
        "meta_epoch": "2025-12-25T02:08:01.635648",
        "meta_mean_motion": 15.03684095,
        "meta_eccentricity": 0.00685428,
        "meta_inclination": 73.9325,
        "meta_ra_of_asc_node": 148.0386,
        "meta_arg_of_pericenter": 40.7776,
        "meta_mean_anomaly": 319.8513,
        "meta_ephemeris_type": 0,
        "meta_classification_type": "U",
        "meta_norad_cat_id": 35071,
        "meta_element_set_no": 999,
        "meta_rev_at_epoch": 67722,
        "meta_bstar": 0.00076375103,
        "meta_mean_motion_dot": 0.00010995,
        "meta_mean_motion_ddot": 0,
        "tle_line1": "1 35071U 93036AJA 25359.08890782  .00010995  00000+0  76375-3 0  9997",
        "tle_line2": "2 35071  73.9325 148.0386 0068542  40.7776 319.8513 15.03684095677228"
      },
      "geometry": {
        "type": "Point",
        "coordinates": [
          -131.99879000797517,
          73.74167284853274
        ]
      }
    },
    {
      "type": "Feature",
      "properties": {
        "norad_id": 35073,
        "name": "COSMOS 2251 DEB",
        "group": "cosmos-2251-debris",
        "lat": 70.16200142740543,
        "lon": -3.195105320817664,
        "alt_km": 548.3588782652232,
        "timestamp": "2025-12-25T16:53:15.059719+00:00",
        "meta_object_name": "COSMOS 2251 DEB",
        "meta_object_id": "1993-036AJC",
        "meta_epoch": "2025-12-23T13:22:12.377280",
        "meta_mean_motion": 15.01382354,
        "meta_eccentricity": 0.00112511,
        "meta_inclination": 74.0027,
        "meta_ra_of_asc_node": 308.5087,
        "meta_arg_of_pericenter": 50.3654,
        "meta_mean_anomaly": 309.8525,
        "meta_ephemeris_type": 0,
        "meta_classification_type": "U",
        "meta_norad_cat_id": 35073,
        "meta_element_set_no": 999,
        "meta_rev_at_epoch": 67641,
        "meta_bstar": 0.0032564954,
        "meta_mean_motion_dot": 0.00042271,
        "meta_mean_motion_ddot": 0,
        "tle_line1": "1 35073U 93036AJC 25357.55708770  .00042271  00000+0  32565-2 0  9998",
        "tle_line2": "2 35073  74.0027 308.5087 0011251  50.3654 309.8525 15.01382354676412"
      },
      "geometry": {
        "type": "Point",
        "coordinates": [
          -3.195105320817664,
          70.16200142740543
        ]
      }
    }
  ]
}